{
"type": "FeatureCollection",
"name": "hotosm_png_health_facilities_points_geojson",
"features": [
{ "type": "Feature", "properties": { "name": "ECPNG Karita Aid Post", "name:en": null, "amenity": "clinic", "building": null, "healthcare": null, "healthcare:speciality": null, "operator:type": null, "capacity:persons": null, "addr:full": null, "addr:city": null, "source": null, "name:ho": null, "name:tpi": null, "osm_id": 3838208491, "osm_type": "nodes" }, "geometry": { "type": "Point", "coordinates": [ 142.841342, -5.7654203 ] } },
{ "type": "Feature", "properties": { "name": "Itipu Aid Post", "name:en": null, "amenity": "clinic", "building": null, "healthcare": null, "healthcare:speciality": null, "operator:type": null, "capacity:persons": null, "addr:full": null, "addr:city": null, "source": null, "name:ho": null, "name:tpi": null, "osm_id": 3884319650, "osm_type": "nodes" }, "geometry": { "type": "Point", "coordinates": [ 142.9981498, -5.826108 ] } },
{ "type": "Feature", "properties": { "name": "Hoiebia Aid Post", "name:en": null, "amenity": "clinic", "building": null, "healthcare": null, "healthcare:speciality": null, "operator:type": null, "capacity:persons": null, "addr:full": null, "addr:city": null, "source": null, "name:ho": null, "name:tpi": null, "osm_id": 3582377296, "osm_type": "nodes" }, "geometry": { "type": "Point", "coordinates": [ 142.9700172, -5.8292914 ] } },
{ "type": "Feature", "properties": { "name": "Wabia Sub Health Center", "name:en": null, "amenity": "clinic", "building": null, "healthcare": null, "healthcare:speciality": null, "operator:type": null, "capacity:persons": null, "addr:full": null, "addr:city": null, "source": null, "name:ho": null, "name:tpi": null, "osm_id": 3509875630, "osm_type": "nodes" }, "geometry": { "type": "Point", "coordinates": [ 142.9905771, -5.8994954 ] } },
{ "type": "Feature", "properties": { "name": "Tigibi Sub Health Center", "name:en": null, "amenity": "clinic", "building": null, "healthcare": null, "healthcare:speciality": null, "operator:type": null, "capacity:persons": null, "addr:full": null, "addr:city": null, "source": null, "name:ho": null, "name:tpi": null, "osm_id": 3728979579, "osm_type": "nodes" }, "geometry": { "type": "Point", "coordinates": [ 143.027314499999989, -5.9235932 ] } },
{ "type": "Feature", "properties": { "name": "Kip Health Centre", "name:en": null, "amenity": null, "building": null, "healthcare": "centre", "healthcare:speciality": "general", "operator:type": null, "capacity:persons": null, "addr:full": null, "addr:city": null, "source": null, "name:ho": null, "name:tpi": null, "osm_id": 8282413539, "osm_type": "nodes" }, "geometry": { "type": "Point", "coordinates": [ 143.555087, -6.1161676 ] } },
{ "type": "Feature", "properties": { "name": "Dentistry", "name:en": null, "amenity": "dentist", "building": null, "healthcare": "dentist", "healthcare:speciality": null, "operator:type": null, "capacity:persons": null, "addr:full": null, "addr:city": null, "source": null, "name:ho": null, "name:tpi": null, "osm_id": 8226773620, "osm_type": "nodes" }, "geometry": { "type": "Point", "coordinates": [ 143.652707, -6.1279105 ] } },
{ "type": "Feature", "properties": { "name": null, "name:en": null, "amenity": "pharmacy", "building": null, "healthcare": "pharmacy", "healthcare:speciality": null, "operator:type": null, "capacity:persons": null, "addr:full": null, "addr:city": null, "source": null, "name:ho": null, "name:tpi": null, "osm_id": 1576406135, "osm_type": "nodes" }, "geometry": { "type": "Point", "coordinates": [ 142.9369601, -3.674064 ] } },
{ "type": "Feature", "properties": { "name": "New Health Centre", "name:en": null, "amenity": "clinic", "building": null, "healthcare": "clinic", "healthcare:speciality": null, "operator:type": null, "capacity:persons": null, "addr:full": null, "addr:city": null, "source": null, "name:ho": null, "name:tpi": null, "osm_id": 1573910972, "osm_type": "nodes" }, "geometry": { "type": "Point", "coordinates": [ 142.9358229, -3.671472 ] } },
{ "type": "Feature", "properties": { "name": null, "name:en": null, "amenity": "pharmacy", "building": null, "healthcare": "pharmacy", "healthcare:speciality": null, "operator:type": null, "capacity:persons": null, "addr:full": null, "addr:city": null, "source": null, "name:ho": null, "name:tpi": null, "osm_id": 1576406133, "osm_type": "nodes" }, "geometry": { "type": "Point", "coordinates": [ 142.942088500000011, -3.6915159 ] } },
{ "type": "Feature", "properties": { "name": "Poliamba Hospital", "name:en": null, "amenity": "hospital", "building": null, "healthcare": "hospital", "healthcare:speciality": "general", "operator:type": null, "capacity:persons": null, "addr:full": null, "addr:city": null, "source": null, "name:ho": null, "name:tpi": null, "osm_id": 5987672480, "osm_type": "nodes" }, "geometry": { "type": "Point", "coordinates": [ 151.2665089, -2.8748052 ] } },
{ "type": "Feature", "properties": { "name": "Fomu Aid Post", "name:en": null, "amenity": "clinic", "building": null, "healthcare": "clinic", "healthcare:speciality": null, "operator:type": null, "capacity:persons": null, "addr:full": null, "addr:city": null, "source": null, "name:ho": null, "name:tpi": null, "osm_id": 8121917252, "osm_type": "nodes" }, "geometry": { "type": "Point", "coordinates": [ 145.7161336, -6.3334136 ] } },
{ "type": "Feature", "properties": { "name": "Tubetube Aid Post", "name:en": null, "amenity": "hospital", "building": null, "healthcare": "hospital", "healthcare:speciality": null, "operator:type": null, "capacity:persons": null, "addr:full": null, "addr:city": null, "source": null, "name:ho": null, "name:tpi": null, "osm_id": 2540118237, "osm_type": "nodes" }, "geometry": { "type": "Point", "coordinates": [ 151.188820600000014, -10.5833928 ] } },
{ "type": "Feature", "properties": { "name": "Topa Health Centre", "name:en": null, "amenity": null, "building": null, "healthcare": "clinic", "healthcare:speciality": "general", "operator:type": null, "capacity:persons": null, "addr:full": null, "addr:city": null, "source": null, "name:ho": null, "name:tpi": null, "osm_id": 8099220986, "osm_type": "nodes" }, "geometry": { "type": "Point", "coordinates": [ 143.5900165, -6.0746266 ] } },
{ "type": "Feature", "properties": { "name": "Inauaia Health Centre", "name:en": "Inauaia Health Centre", "amenity": "hospital", "building": null, "healthcare": "hospital", "healthcare:speciality": "medicina_familiar_i_comunitariamedicina_general", "operator:type": null, "capacity:persons": null, "addr:full": null, "addr:city": "Inauaia", "source": null, "name:ho": null, "name:tpi": null, "osm_id": 4369614596, "osm_type": "nodes" }, "geometry": { "type": "Point", "coordinates": [ 146.579578199999986, -8.6295698 ] } },
{ "type": "Feature", "properties": { "name": "Sumbura Health Center", "name:en": null, "amenity": "clinic", "building": null, "healthcare": null, "healthcare:speciality": null, "operator:type": null, "capacity:persons": null, "addr:full": null, "addr:city": null, "source": null, "name:ho": null, "name:tpi": null, "osm_id": 3736807760, "osm_type": "nodes" }, "geometry": { "type": "Point", "coordinates": [ 143.8485183, -6.4845287 ] } },
{ "type": "Feature", "properties": { "name": "Yakisu Community Health Center", "name:en": null, "amenity": "clinic", "building": null, "healthcare": null, "healthcare:speciality": null, "operator:type": null, "capacity:persons": null, "addr:full": null, "addr:city": null, "source": null, "name:ho": null, "name:tpi": null, "osm_id": 3618755128, "osm_type": "nodes" }, "geometry": { "type": "Point", "coordinates": [ 143.859616100000011, -6.5368249 ] } },
{ "type": "Feature", "properties": { "name": "Kiripia Health Centre", "name:en": null, "amenity": "clinic", "building": null, "healthcare": "clinic", "healthcare:speciality": null, "operator:type": null, "capacity:persons": null, "addr:full": null, "addr:city": null, "source": null, "name:ho": null, "name:tpi": null, "osm_id": 3820054574, "osm_type": "nodes" }, "geometry": { "type": "Point", "coordinates": [ 143.992384499999986, -5.9478288 ] } },
{ "type": "Feature", "properties": { "name": "City Pharmacy", "name:en": "City Pharmacy", "amenity": "pharmacy", "building": null, "healthcare": "pharmacy", "healthcare:speciality": null, "operator:type": null, "capacity:persons": null, "addr:full": null, "addr:city": null, "source": null, "name:ho": null, "name:tpi": null, "osm_id": 4605004490, "osm_type": "nodes" }, "geometry": { "type": "Point", "coordinates": [ 147.181038199999989, -9.4383489 ] } },
{ "type": "Feature", "properties": { "name": "Lamana Dental Clinic", "name:en": null, "amenity": "dentist", "building": null, "healthcare": "dentist", "healthcare:speciality": null, "operator:type": null, "capacity:persons": null, "addr:full": null, "addr:city": null, "source": null, "name:ho": null, "name:tpi": null, "osm_id": 12823604159, "osm_type": "nodes" }, "geometry": { "type": "Point", "coordinates": [ 147.179373, -9.4425968 ] } },
{ "type": "Feature", "properties": { "name": "RH Pharmacy", "name:en": null, "amenity": "pharmacy", "building": null, "healthcare": "pharmacy", "healthcare:speciality": null, "operator:type": null, "capacity:persons": null, "addr:full": null, "addr:city": null, "source": null, "name:ho": null, "name:tpi": null, "osm_id": 12823604186, "osm_type": "nodes" }, "geometry": { "type": "Point", "coordinates": [ 147.1811868, -9.4381637 ] } },
{ "type": "Feature", "properties": { "name": "Diamond International Medicentre", "name:en": null, "amenity": "clinic", "building": null, "healthcare": "clinic", "healthcare:speciality": null, "operator:type": null, "capacity:persons": null, "addr:full": null, "addr:city": null, "source": null, "name:ho": null, "name:tpi": null, "osm_id": 12823639417, "osm_type": "nodes" }, "geometry": { "type": "Point", "coordinates": [ 147.1817335, -9.437826 ] } },
{ "type": "Feature", "properties": { "name": "Tali's Pharmacy", "name:en": null, "amenity": "pharmacy", "building": null, "healthcare": "pharmacy", "healthcare:speciality": null, "operator:type": null, "capacity:persons": null, "addr:full": null, "addr:city": null, "source": null, "name:ho": null, "name:tpi": null, "osm_id": 12823476995, "osm_type": "nodes" }, "geometry": { "type": "Point", "coordinates": [ 147.184631200000013, -9.4465809 ] } },
{ "type": "Feature", "properties": { "name": "Blue Sky Medical and Dental Clinic", "name:en": null, "amenity": "dentist", "building": null, "healthcare": "dentist", "healthcare:speciality": null, "operator:type": null, "capacity:persons": null, "addr:full": null, "addr:city": null, "source": null, "name:ho": null, "name:tpi": null, "osm_id": 12823476996, "osm_type": "nodes" }, "geometry": { "type": "Point", "coordinates": [ 147.1848001, -9.4465498 ] } },
{ "type": "Feature", "properties": { "name": "Chemcare Pharmacy", "name:en": null, "amenity": "pharmacy", "building": null, "healthcare": "pharmacy", "healthcare:speciality": null, "operator:type": null, "capacity:persons": null, "addr:full": null, "addr:city": null, "source": null, "name:ho": null, "name:tpi": null, "osm_id": 12823500736, "osm_type": "nodes" }, "geometry": { "type": "Point", "coordinates": [ 147.1830452, -9.4426853 ] } },
{ "type": "Feature", "properties": { "name": "City Pharmacy", "name:en": null, "amenity": "pharmacy", "building": null, "healthcare": "pharmacy", "healthcare:speciality": null, "operator:type": null, "capacity:persons": null, "addr:full": null, "addr:city": null, "source": null, "name:ho": null, "name:tpi": null, "osm_id": 12823179555, "osm_type": "nodes" }, "geometry": { "type": "Point", "coordinates": [ 147.1869495, -9.4544432 ] } },
{ "type": "Feature", "properties": { "name": "PIH Medical Centre", "name:en": null, "amenity": "clinic", "building": null, "healthcare": "clinic", "healthcare:speciality": null, "operator:type": null, "capacity:persons": null, "addr:full": null, "addr:city": null, "source": null, "name:ho": null, "name:tpi": null, "osm_id": 12823179564, "osm_type": "nodes" }, "geometry": { "type": "Point", "coordinates": [ 147.186132500000014, -9.4537607 ] } },
{ "type": "Feature", "properties": { "name": "RH Pharmacy", "name:en": null, "amenity": "pharmacy", "building": null, "healthcare": "pharmacy", "healthcare:speciality": null, "operator:type": null, "capacity:persons": null, "addr:full": null, "addr:city": null, "source": null, "name:ho": null, "name:tpi": null, "osm_id": 12822681289, "osm_type": "nodes" }, "geometry": { "type": "Point", "coordinates": [ 147.189962900000012, -9.4460177 ] } },
{ "type": "Feature", "properties": { "name": "Komya Aid Post", "name:en": null, "amenity": "clinic", "building": null, "healthcare": null, "healthcare:speciality": null, "operator:type": null, "capacity:persons": null, "addr:full": null, "addr:city": null, "source": null, "name:ho": null, "name:tpi": null, "osm_id": 7634125985, "osm_type": "nodes" }, "geometry": { "type": "Point", "coordinates": [ 143.4370729, -6.1179576 ] } },
{ "type": "Feature", "properties": { "name": "Towan Aid Post", "name:en": null, "amenity": "clinic", "building": null, "healthcare": null, "healthcare:speciality": null, "operator:type": null, "capacity:persons": null, "addr:full": null, "addr:city": null, "source": null, "name:ho": null, "name:tpi": null, "osm_id": 7633924885, "osm_type": "nodes" }, "geometry": { "type": "Point", "coordinates": [ 143.3991489, -6.0923831 ] } },
{ "type": "Feature", "properties": { "name": "Karinja Health Center", "name:en": null, "amenity": "clinic", "building": null, "healthcare": null, "healthcare:speciality": null, "operator:type": null, "capacity:persons": null, "addr:full": null, "addr:city": null, "source": null, "name:ho": null, "name:tpi": null, "osm_id": 7633868185, "osm_type": "nodes" }, "geometry": { "type": "Point", "coordinates": [ 143.3732726, -6.094673 ] } },
{ "type": "Feature", "properties": { "name": "Star Optical Clinic", "name:en": null, "amenity": null, "building": null, "healthcare": "optometrist", "healthcare:speciality": null, "operator:type": null, "capacity:persons": null, "addr:full": null, "addr:city": null, "source": null, "name:ho": null, "name:tpi": null, "osm_id": 12823476974, "osm_type": "nodes" }, "geometry": { "type": "Point", "coordinates": [ 147.1841923, -9.4452357 ] } },
{ "type": "Feature", "properties": { "name": "Vision Care Optical", "name:en": null, "amenity": null, "building": null, "healthcare": "optometrist", "healthcare:speciality": null, "operator:type": null, "capacity:persons": null, "addr:full": null, "addr:city": null, "source": null, "name:ho": null, "name:tpi": null, "osm_id": 12823476986, "osm_type": "nodes" }, "geometry": { "type": "Point", "coordinates": [ 147.1848689, -9.4455131 ] } },
{ "type": "Feature", "properties": { "name": "Lapilo Clinic", "name:en": "Lapilo Clinic", "amenity": "clinic", "building": null, "healthcare": "clinic", "healthcare:speciality": null, "operator:type": null, "capacity:persons": null, "addr:full": null, "addr:city": null, "source": null, "name:ho": null, "name:tpi": null, "osm_id": 4524003490, "osm_type": "nodes" }, "geometry": { "type": "Point", "coordinates": [ 145.4139609, -6.1781796 ] } },
{ "type": "Feature", "properties": { "name": "Idawi Sub Health Center", "name:en": null, "amenity": "clinic", "building": null, "healthcare": "clinic", "healthcare:speciality": null, "operator:type": null, "capacity:persons": null, "addr:full": null, "addr:city": null, "source": null, "name:ho": null, "name:tpi": null, "osm_id": 3884319649, "osm_type": "nodes" }, "geometry": { "type": "Point", "coordinates": [ 142.858121, -5.9260047 ] } },
{ "type": "Feature", "properties": { "name": "Chemcare Pharmacy", "name:en": null, "amenity": "pharmacy", "building": null, "healthcare": "pharmacy", "healthcare:speciality": null, "operator:type": null, "capacity:persons": null, "addr:full": null, "addr:city": null, "source": null, "name:ho": null, "name:tpi": null, "osm_id": 12744882696, "osm_type": "nodes" }, "geometry": { "type": "Point", "coordinates": [ 146.9905201, -6.7349891 ] } },
{ "type": "Feature", "properties": { "name": "Hiwinda Sub Health Center", "name:en": null, "amenity": "clinic", "building": null, "healthcare": "clinic", "healthcare:speciality": null, "operator:type": null, "capacity:persons": null, "addr:full": null, "addr:city": null, "source": null, "name:ho": null, "name:tpi": null, "osm_id": 3728939718, "osm_type": "nodes" }, "geometry": { "type": "Point", "coordinates": [ 142.8636521, -5.8677471 ] } },
{ "type": "Feature", "properties": { "name": "Habono Aid Post", "name:en": null, "amenity": "clinic", "building": null, "healthcare": "clinic", "healthcare:speciality": null, "operator:type": null, "capacity:persons": null, "addr:full": null, "addr:city": null, "source": null, "name:ho": null, "name:tpi": null, "osm_id": 3884326344, "osm_type": "nodes" }, "geometry": { "type": "Point", "coordinates": [ 142.830757799999986, -5.9221337 ] } },
{ "type": "Feature", "properties": { "name": null, "name:en": null, "amenity": "pharmacy", "building": null, "healthcare": "pharmacy", "healthcare:speciality": null, "operator:type": null, "capacity:persons": null, "addr:full": null, "addr:city": null, "source": null, "name:ho": null, "name:tpi": null, "osm_id": 2581127831, "osm_type": "nodes" }, "geometry": { "type": "Point", "coordinates": [ 150.4467273, -10.3055396 ] } },
{ "type": "Feature", "properties": { "name": "Dauli Aid Post", "name:en": null, "amenity": "clinic", "building": null, "healthcare": "clinic", "healthcare:speciality": null, "operator:type": null, "capacity:persons": null, "addr:full": null, "addr:city": null, "source": null, "name:ho": null, "name:tpi": null, "osm_id": 3512091081, "osm_type": "nodes" }, "geometry": { "type": "Point", "coordinates": [ 142.956546800000012, -5.9074763 ] } },
{ "type": "Feature", "properties": { "name": "St. Gerard's Hospital, Veifa'a", "name:en": "St. Gerard's Hospital, Veifa'a", "amenity": "hospital", "building": null, "healthcare": "hospital", "healthcare:speciality": null, "operator:type": null, "capacity:persons": null, "addr:full": null, "addr:city": null, "source": null, "name:ho": null, "name:tpi": null, "osm_id": 4369614595, "osm_type": "nodes" }, "geometry": { "type": "Point", "coordinates": [ 146.5608095, -8.5413931 ] } },
{ "type": "Feature", "properties": { "name": "Kerema Public Hospital", "name:en": null, "amenity": "hospital", "building": null, "healthcare": "hospital", "healthcare:speciality": null, "operator:type": null, "capacity:persons": null, "addr:full": null, "addr:city": null, "source": "survey", "name:ho": null, "name:tpi": null, "osm_id": 2905135545, "osm_type": "nodes" }, "geometry": { "type": "Point", "coordinates": [ 145.7744166, -7.9647912 ] } },
{ "type": "Feature", "properties": { "name": "Natu Clinic", "name:en": "Natu Clinic", "amenity": "doctors", "building": null, "healthcare": "doctor", "healthcare:speciality": null, "operator:type": null, "capacity:persons": null, "addr:full": null, "addr:city": null, "source": null, "name:ho": null, "name:tpi": null, "osm_id": 4972822122, "osm_type": "nodes" }, "geometry": { "type": "Point", "coordinates": [ 145.8046043, -5.2250528 ] } },
{ "type": "Feature", "properties": { "name": "Nowa Aid Post", "name:en": null, "amenity": "clinic", "building": null, "healthcare": "clinic", "healthcare:speciality": null, "operator:type": null, "capacity:persons": null, "addr:full": null, "addr:city": null, "source": null, "name:ho": null, "name:tpi": null, "osm_id": 7523250080, "osm_type": "nodes" }, "geometry": { "type": "Point", "coordinates": [ 146.4704207, -6.5117115 ] } },
{ "type": "Feature", "properties": { "name": "Chemcare Pharmacy", "name:en": null, "amenity": "pharmacy", "building": null, "healthcare": "pharmacy", "healthcare:speciality": null, "operator:type": null, "capacity:persons": null, "addr:full": null, "addr:city": null, "source": null, "name:ho": null, "name:tpi": null, "osm_id": 7410450763, "osm_type": "nodes" }, "geometry": { "type": "Point", "coordinates": [ 146.9921666, -6.7141176 ] } },
{ "type": "Feature", "properties": { "name": "PIH Dental Care", "name:en": null, "amenity": "dentist", "building": null, "healthcare": "dentist", "healthcare:speciality": null, "operator:type": null, "capacity:persons": null, "addr:full": null, "addr:city": null, "source": null, "name:ho": null, "name:tpi": null, "osm_id": 7407667723, "osm_type": "nodes" }, "geometry": { "type": "Point", "coordinates": [ 146.9884697, -6.7361427 ] } },
{ "type": "Feature", "properties": { "name": "World Vision TB Treatment Point", "name:en": null, "amenity": "clinic", "building": null, "healthcare": "clinic", "healthcare:speciality": null, "operator:type": null, "capacity:persons": null, "addr:full": null, "addr:city": null, "source": null, "name:ho": null, "name:tpi": null, "osm_id": 4043161892, "osm_type": "nodes" }, "geometry": { "type": "Point", "coordinates": [ 143.2095243, -9.0706918 ] } },
{ "type": "Feature", "properties": { "name": "MCH Clinic", "name:en": null, "amenity": "clinic", "building": null, "healthcare": "clinic", "healthcare:speciality": null, "operator:type": null, "capacity:persons": null, "addr:full": null, "addr:city": null, "source": null, "name:ho": null, "name:tpi": null, "osm_id": 4055913593, "osm_type": "nodes" }, "geometry": { "type": "Point", "coordinates": [ 143.212483099999986, -9.0722879 ] } },
{ "type": "Feature", "properties": { "name": "Bamu TB Treatment Point", "name:en": null, "amenity": "clinic", "building": null, "healthcare": "clinic", "healthcare:speciality": null, "operator:type": null, "capacity:persons": null, "addr:full": null, "addr:city": null, "source": null, "name:ho": null, "name:tpi": null, "osm_id": 4043161891, "osm_type": "nodes" }, "geometry": { "type": "Point", "coordinates": [ 143.2043315, -9.0905986 ] } },
{ "type": "Feature", "properties": { "name": "Arawa Health Center", "name:en": null, "amenity": "clinic", "building": null, "healthcare": "clinic", "healthcare:speciality": null, "operator:type": null, "capacity:persons": null, "addr:full": null, "addr:city": null, "source": null, "name:ho": null, "name:tpi": null, "osm_id": 3618553911, "osm_type": "nodes" }, "geometry": { "type": "Point", "coordinates": [ 155.570336200000014, -6.2273133 ] } },
{ "type": "Feature", "properties": { "name": "Seeto Kui Pharmacy", "name:en": null, "amenity": "pharmacy", "building": null, "healthcare": "pharmacy", "healthcare:speciality": null, "operator:type": null, "capacity:persons": null, "addr:full": null, "addr:city": null, "source": null, "name:ho": null, "name:tpi": null, "osm_id": 7408262703, "osm_type": "nodes" }, "geometry": { "type": "Point", "coordinates": [ 147.0017942, -6.7275236 ] } },
{ "type": "Feature", "properties": { "name": "Masalohan Medical Services", "name:en": null, "amenity": "doctors", "building": null, "healthcare": "doctor", "healthcare:speciality": null, "operator:type": null, "capacity:persons": null, "addr:full": null, "addr:city": null, "source": null, "name:ho": null, "name:tpi": null, "osm_id": 12718442530, "osm_type": "nodes" }, "geometry": { "type": "Point", "coordinates": [ 147.0018275, -6.7274278 ] } },
{ "type": "Feature", "properties": { "name": "Seeto Kui Clinic", "name:en": null, "amenity": "clinic", "building": null, "healthcare": "clinic", "healthcare:speciality": null, "operator:type": null, "capacity:persons": null, "addr:full": null, "addr:city": null, "source": null, "name:ho": null, "name:tpi": null, "osm_id": 12718442531, "osm_type": "nodes" }, "geometry": { "type": "Point", "coordinates": [ 147.0018905, -6.727541 ] } },
{ "type": "Feature", "properties": { "name": "Annam Medical Centre", "name:en": null, "amenity": "clinic", "building": null, "healthcare": "clinic", "healthcare:speciality": null, "operator:type": null, "capacity:persons": null, "addr:full": null, "addr:city": null, "source": null, "name:ho": null, "name:tpi": null, "osm_id": 12718130196, "osm_type": "nodes" }, "geometry": { "type": "Point", "coordinates": [ 147.001994599999989, -6.729463 ] } },
{ "type": "Feature", "properties": { "name": "Lae Pathology & Medical Services", "name:en": null, "amenity": "doctors", "building": null, "healthcare": "doctor", "healthcare:speciality": "pathology", "operator:type": null, "capacity:persons": null, "addr:full": null, "addr:city": null, "source": null, "name:ho": null, "name:tpi": null, "osm_id": 12718130197, "osm_type": "nodes" }, "geometry": { "type": "Point", "coordinates": [ 147.0018915, -6.7295359 ] } },
{ "type": "Feature", "properties": { "name": "Kapuna Hospital", "name:en": null, "amenity": "hospital", "building": null, "healthcare": "hospital", "healthcare:speciality": null, "operator:type": null, "capacity:persons": null, "addr:full": null, "addr:city": null, "source": null, "name:ho": null, "name:tpi": null, "osm_id": 3887391276, "osm_type": "nodes" }, "geometry": { "type": "Point", "coordinates": [ 144.9641723, -7.5769289 ] } },
{ "type": "Feature", "properties": { "name": "Lapilo Dentist", "name:en": "Lapilo Dentist", "amenity": "dentist", "building": null, "healthcare": "dentist", "healthcare:speciality": null, "operator:type": null, "capacity:persons": null, "addr:full": null, "addr:city": null, "source": null, "name:ho": null, "name:tpi": null, "osm_id": 4524018092, "osm_type": "nodes" }, "geometry": { "type": "Point", "coordinates": [ 145.4138553, -6.1779468 ] } },
{ "type": "Feature", "properties": { "name": "New Town Pharmacy", "name:en": null, "amenity": "pharmacy", "building": null, "healthcare": "pharmacy", "healthcare:speciality": null, "operator:type": null, "capacity:persons": null, "addr:full": null, "addr:city": null, "source": null, "name:ho": null, "name:tpi": null, "osm_id": 11545579811, "osm_type": "nodes" }, "geometry": { "type": "Point", "coordinates": [ 144.2267415, -5.8586978 ] } },
{ "type": "Feature", "properties": { "name": "Melpa Pharmacy", "name:en": null, "amenity": "pharmacy", "building": null, "healthcare": "pharmacy", "healthcare:speciality": null, "operator:type": null, "capacity:persons": null, "addr:full": null, "addr:city": null, "source": null, "name:ho": null, "name:tpi": null, "osm_id": 11545588297, "osm_type": "nodes" }, "geometry": { "type": "Point", "coordinates": [ 144.2287905, -5.8582641 ] } },
{ "type": "Feature", "properties": { "name": "Tambul Clinic", "name:en": null, "amenity": "clinic", "building": null, "healthcare": "clinic", "healthcare:speciality": null, "operator:type": null, "capacity:persons": null, "addr:full": null, "addr:city": null, "source": null, "name:ho": null, "name:tpi": null, "osm_id": 7244804126, "osm_type": "nodes" }, "geometry": { "type": "Point", "coordinates": [ 143.9580866, -5.8815082 ] } },
{ "type": "Feature", "properties": { "name": "Warete Sub Health Center", "name:en": null, "amenity": "clinic", "building": null, "healthcare": "clinic", "healthcare:speciality": null, "operator:type": null, "capacity:persons": null, "addr:full": null, "addr:city": null, "source": null, "name:ho": null, "name:tpi": null, "osm_id": 3728940236, "osm_type": "nodes" }, "geometry": { "type": "Point", "coordinates": [ 142.8535205, -5.8214857 ] } },
{ "type": "Feature", "properties": { "name": "Albinama Health Centre", "name:en": null, "amenity": "clinic", "building": null, "healthcare": "clinic", "healthcare:speciality": null, "operator:type": null, "capacity:persons": null, "addr:full": null, "addr:city": null, "source": null, "name:ho": null, "name:tpi": null, "osm_id": 2080652995, "osm_type": "nodes" }, "geometry": { "type": "Point", "coordinates": [ 142.9073295, -3.5881947 ] } },
{ "type": "Feature", "properties": { "name": "Ilahita Health Centre", "name:en": null, "amenity": "clinic", "building": null, "healthcare": "clinic", "healthcare:speciality": null, "operator:type": null, "capacity:persons": null, "addr:full": null, "addr:city": null, "source": null, "name:ho": null, "name:tpi": null, "osm_id": 1363482791, "osm_type": "nodes" }, "geometry": { "type": "Point", "coordinates": [ 142.94132110000001, -3.6786286 ] } },
{ "type": "Feature", "properties": { "name": "Uma Community Health Post", "name:en": null, "amenity": "clinic", "building": null, "healthcare": null, "healthcare:speciality": null, "operator:type": null, "capacity:persons": null, "addr:full": null, "addr:city": null, "source": null, "name:ho": null, "name:tpi": null, "osm_id": 3735488353, "osm_type": "nodes" }, "geometry": { "type": "Point", "coordinates": [ 143.754712399999988, -6.3673596 ] } },
{ "type": "Feature", "properties": { "name": "Rabaraba Hospital", "name:en": null, "amenity": "hospital", "building": null, "healthcare": null, "healthcare:speciality": null, "operator:type": null, "capacity:persons": null, "addr:full": null, "addr:city": null, "source": null, "name:ho": null, "name:tpi": null, "osm_id": 7678256285, "osm_type": "nodes" }, "geometry": { "type": "Point", "coordinates": [ 149.837026400000013, -9.9515469 ] } },
{ "type": "Feature", "properties": { "name": "Mini Nr2 Kaibar;City Pharmacy", "name:en": null, "amenity": "restaurant;pharmacy", "building": null, "healthcare": "pharmacy", "healthcare:speciality": null, "operator:type": null, "capacity:persons": null, "addr:full": null, "addr:city": null, "source": null, "name:ho": null, "name:tpi": null, "osm_id": 3490486169, "osm_type": "nodes" }, "geometry": { "type": "Point", "coordinates": [ 144.2313221, -5.8582651 ] } },
{ "type": "Feature", "properties": { "name": "Hangapo Sub Health Center", "name:en": null, "amenity": "clinic", "building": null, "healthcare": null, "healthcare:speciality": null, "operator:type": null, "capacity:persons": null, "addr:full": null, "addr:city": null, "source": null, "name:ho": null, "name:tpi": null, "osm_id": 3448188798, "osm_type": "nodes" }, "geometry": { "type": "Point", "coordinates": [ 143.000369299999988, -5.8390348 ] } },
{ "type": "Feature", "properties": { "name": "Warolo Aid Post", "name:en": null, "amenity": "clinic", "building": null, "healthcare": "clinic", "healthcare:speciality": null, "operator:type": null, "capacity:persons": null, "addr:full": null, "addr:city": null, "source": null, "name:ho": null, "name:tpi": null, "osm_id": 3884319652, "osm_type": "nodes" }, "geometry": { "type": "Point", "coordinates": [ 142.8999044, -5.842979 ] } },
{ "type": "Feature", "properties": { "name": "Paijaka Aid Post (Closed)", "name:en": null, "amenity": "clinic", "building": null, "healthcare": null, "healthcare:speciality": null, "operator:type": null, "capacity:persons": null, "addr:full": null, "addr:city": null, "source": null, "name:ho": null, "name:tpi": null, "osm_id": 3884319651, "osm_type": "nodes" }, "geometry": { "type": "Point", "coordinates": [ 142.9384455, -5.7832001 ] } },
{ "type": "Feature", "properties": { "name": "Callen Services", "name:en": null, "amenity": "clinic", "building": null, "healthcare": "clinic", "healthcare:speciality": null, "operator:type": null, "capacity:persons": null, "addr:full": null, "addr:city": null, "source": null, "name:ho": null, "name:tpi": null, "osm_id": 3993343059, "osm_type": "nodes" }, "geometry": { "type": "Point", "coordinates": [ 143.2082553, -9.0751771 ] } },
{ "type": "Feature", "properties": { "name": "Nazarene General Hospital", "name:en": null, "amenity": "hospital", "building": null, "healthcare": "hospital", "healthcare:speciality": "surgery;general;trauma;paediatrics;clinic", "operator:type": null, "capacity:persons": null, "addr:full": null, "addr:city": null, "source": null, "name:ho": null, "name:tpi": null, "osm_id": 2266566023, "osm_type": "nodes" }, "geometry": { "type": "Point", "coordinates": [ 144.581915400000014, -5.846106 ] } },
{ "type": "Feature", "properties": { "name": "City Pharmacy", "name:en": null, "amenity": "pharmacy", "building": null, "healthcare": "pharmacy", "healthcare:speciality": null, "operator:type": null, "capacity:persons": null, "addr:full": null, "addr:city": null, "source": null, "name:ho": null, "name:tpi": null, "osm_id": 2064246374, "osm_type": "nodes" }, "geometry": { "type": "Point", "coordinates": [ 154.6730188, -5.4305967 ] } },
{ "type": "Feature", "properties": { "name": "Buan Aid Post", "name:en": null, "amenity": "clinic", "building": null, "healthcare": "clinic", "healthcare:speciality": null, "operator:type": null, "capacity:persons": null, "addr:full": null, "addr:city": null, "source": null, "name:ho": null, "name:tpi": null, "osm_id": 2563991701, "osm_type": "nodes" }, "geometry": { "type": "Point", "coordinates": [ 145.8030205, -5.5480012 ] } },
{ "type": "Feature", "properties": { "name": "Diabetic Centre", "name:en": null, "amenity": "clinic", "building": null, "healthcare": "clinic", "healthcare:speciality": null, "operator:type": null, "capacity:persons": null, "addr:full": null, "addr:city": null, "source": "approximation", "name:ho": null, "name:tpi": null, "osm_id": 693086419, "osm_type": "nodes" }, "geometry": { "type": "Point", "coordinates": [ 152.169643900000011, -4.1967915 ] } },
{ "type": "Feature", "properties": { "name": "Katiloma Clinic - temporary", "name:en": null, "amenity": "clinic", "building": null, "healthcare": null, "healthcare:speciality": null, "operator:type": null, "capacity:persons": null, "addr:full": null, "addr:city": null, "source": null, "name:ho": null, "name:tpi": null, "osm_id": 7561873785, "osm_type": "nodes" }, "geometry": { "type": "Point", "coordinates": [ 143.8742982, -6.4876044 ] } },
{ "type": "Feature", "properties": { "name": "Songum Aid Post", "name:en": null, "amenity": "clinic", "building": null, "healthcare": "clinic", "healthcare:speciality": null, "operator:type": null, "capacity:persons": null, "addr:full": null, "addr:city": null, "source": null, "name:ho": null, "name:tpi": null, "osm_id": 2563991468, "osm_type": "nodes" }, "geometry": { "type": "Point", "coordinates": [ 145.8533755, -5.5064291 ] } },
{ "type": "Feature", "properties": { "name": null, "name:en": null, "amenity": "pharmacy", "building": null, "healthcare": null, "healthcare:speciality": null, "operator:type": null, "capacity:persons": null, "addr:full": null, "addr:city": null, "source": null, "name:ho": null, "name:tpi": null, "osm_id": 1576406112, "osm_type": "nodes" }, "geometry": { "type": "Point", "coordinates": [ 142.927068100000014, -3.6856701 ] } },
{ "type": "Feature", "properties": { "name": "Pureni Health Centre", "name:en": null, "amenity": "clinic", "building": null, "healthcare": null, "healthcare:speciality": null, "operator:type": null, "capacity:persons": null, "addr:full": null, "addr:city": null, "source": null, "name:ho": null, "name:tpi": null, "osm_id": 6849202685, "osm_type": "nodes" }, "geometry": { "type": "Point", "coordinates": [ 142.8270885, -5.8427381 ] } },
{ "type": "Feature", "properties": { "name": "Paikela Aid Post", "name:en": null, "amenity": "clinic", "building": null, "healthcare": "clinic", "healthcare:speciality": null, "operator:type": null, "capacity:persons": null, "addr:full": null, "addr:city": null, "source": null, "name:ho": null, "name:tpi": null, "osm_id": 3728939724, "osm_type": "nodes" }, "geometry": { "type": "Point", "coordinates": [ 142.8449309, -5.8939714 ] } },
{ "type": "Feature", "properties": { "name": "Baimuru Health Centre", "name:en": null, "amenity": "hospital", "building": null, "healthcare": "hospital", "healthcare:speciality": null, "operator:type": null, "capacity:persons": null, "addr:full": null, "addr:city": null, "source": null, "name:ho": null, "name:tpi": null, "osm_id": 3888595176, "osm_type": "nodes" }, "geometry": { "type": "Point", "coordinates": [ 144.8292111, -7.495418 ] } },
{ "type": "Feature", "properties": { "name": "Tamati TB Treatment Point", "name:en": null, "amenity": "clinic", "building": null, "healthcare": "clinic", "healthcare:speciality": null, "operator:type": null, "capacity:persons": null, "addr:full": null, "addr:city": null, "source": null, "name:ho": null, "name:tpi": null, "osm_id": 4029272856, "osm_type": "nodes" }, "geometry": { "type": "Point", "coordinates": [ 143.207101, -9.0759104 ] } },
{ "type": "Feature", "properties": { "name": "DGH TB Treatment Point", "name:en": null, "amenity": "clinic", "building": null, "healthcare": "clinic", "healthcare:speciality": null, "operator:type": null, "capacity:persons": null, "addr:full": null, "addr:city": null, "source": null, "name:ho": null, "name:tpi": null, "osm_id": 4043161893, "osm_type": "nodes" }, "geometry": { "type": "Point", "coordinates": [ 143.2130357, -9.0721184 ] } },
{ "type": "Feature", "properties": { "name": "Mabudawan Health Centre", "name:en": null, "amenity": "clinic", "building": null, "healthcare": "clinic", "healthcare:speciality": null, "operator:type": null, "capacity:persons": null, "addr:full": null, "addr:city": null, "source": null, "name:ho": null, "name:tpi": null, "osm_id": 3975922855, "osm_type": "nodes" }, "geometry": { "type": "Point", "coordinates": [ 142.7377492, -9.27516 ] } },
{ "type": "Feature", "properties": { "name": "Andawale Aid Post", "name:en": null, "amenity": "clinic", "building": null, "healthcare": "clinic", "healthcare:speciality": null, "operator:type": null, "capacity:persons": null, "addr:full": null, "addr:city": null, "source": null, "name:ho": null, "name:tpi": null, "osm_id": 3884319648, "osm_type": "nodes" }, "geometry": { "type": "Point", "coordinates": [ 143.007869199999988, -5.8625883 ] } },
{ "type": "Feature", "properties": { "name": "City Pharmacy", "name:en": "City Pharmacy", "amenity": "pharmacy", "building": null, "healthcare": "pharmacy", "healthcare:speciality": null, "operator:type": null, "capacity:persons": null, "addr:full": null, "addr:city": null, "source": null, "name:ho": null, "name:tpi": null, "osm_id": 4597725789, "osm_type": "nodes" }, "geometry": { "type": "Point", "coordinates": [ 147.1838257, -9.4460222 ] } },
{ "type": "Feature", "properties": { "name": "Yapum Health Centre", "name:en": null, "amenity": null, "building": null, "healthcare": "yes", "healthcare:speciality": null, "operator:type": null, "capacity:persons": null, "addr:full": null, "addr:city": null, "source": null, "name:ho": null, "name:tpi": null, "osm_id": 8262750224, "osm_type": "nodes" }, "geometry": { "type": "Point", "coordinates": [ 143.464269300000012, -5.7141064 ] } },
{ "type": "Feature", "properties": { "name": "Aseki Health center", "name:en": null, "amenity": "clinic", "building": null, "healthcare": "clinic", "healthcare:speciality": null, "operator:type": null, "capacity:persons": null, "addr:full": null, "addr:city": null, "source": null, "name:ho": null, "name:tpi": null, "osm_id": 4274990189, "osm_type": "nodes" }, "geometry": { "type": "Point", "coordinates": [ 146.1932916, -7.3523233 ] } },
{ "type": "Feature", "properties": { "name": "Pinji Aid Post", "name:en": null, "amenity": "clinic", "building": null, "healthcare": "clinic", "healthcare:speciality": null, "operator:type": null, "capacity:persons": null, "addr:full": null, "addr:city": null, "source": null, "name:ho": null, "name:tpi": null, "osm_id": 8432732920, "osm_type": "nodes" }, "geometry": { "type": "Point", "coordinates": [ 145.7858985, -6.8498586 ] } },
{ "type": "Feature", "properties": { "name": "Ileg Health Centre", "name:en": null, "amenity": "clinic", "building": null, "healthcare": "clinic", "healthcare:speciality": null, "operator:type": null, "capacity:persons": null, "addr:full": null, "addr:city": null, "source": null, "name:ho": null, "name:tpi": null, "osm_id": 2563989779, "osm_type": "nodes" }, "geometry": { "type": "Point", "coordinates": [ 145.799237799999986, -5.4929303 ] } },
{ "type": "Feature", "properties": { "name": "private doctor", "name:en": null, "amenity": "doctors", "building": null, "healthcare": "doctor", "healthcare:speciality": null, "operator:type": null, "capacity:persons": null, "addr:full": null, "addr:city": null, "source": null, "name:ho": null, "name:tpi": null, "osm_id": 1567308068, "osm_type": "nodes" }, "geometry": { "type": "Point", "coordinates": [ 145.801339899999988, -5.223194 ] } },
{ "type": "Feature", "properties": { "name": "Fredi's Pharmacy", "name:en": null, "amenity": "pharmacy", "building": null, "healthcare": "pharmacy", "healthcare:speciality": null, "operator:type": null, "capacity:persons": null, "addr:full": null, "addr:city": null, "source": null, "name:ho": null, "name:tpi": null, "osm_id": 7410500536, "osm_type": "nodes" }, "geometry": { "type": "Point", "coordinates": [ 146.9900477, -6.7259128 ] } },
{ "type": "Feature", "properties": { "name": "Mbuke Aid Post", "name:en": null, "amenity": "clinic", "building": null, "healthcare": "clinic", "healthcare:speciality": null, "operator:type": null, "capacity:persons": null, "addr:full": null, "addr:city": null, "source": null, "name:ho": null, "name:tpi": null, "osm_id": 4004364085, "osm_type": "nodes" }, "geometry": { "type": "Point", "coordinates": [ 146.8258629, -2.382402 ] } },
{ "type": "Feature", "properties": { "name": "City Pharmacy", "name:en": null, "amenity": "pharmacy", "building": null, "healthcare": "pharmacy", "healthcare:speciality": null, "operator:type": null, "capacity:persons": null, "addr:full": null, "addr:city": null, "source": null, "name:ho": null, "name:tpi": null, "osm_id": 9392155606, "osm_type": "nodes" }, "geometry": { "type": "Point", "coordinates": [ 150.7934694, -2.5747308 ] } },
{ "type": "Feature", "properties": { "name": "7-days Pharmacy", "name:en": null, "amenity": "pharmacy", "building": null, "healthcare": "pharmacy", "healthcare:speciality": null, "operator:type": null, "capacity:persons": null, "addr:full": null, "addr:city": null, "source": null, "name:ho": null, "name:tpi": null, "osm_id": 8327515764, "osm_type": "nodes" }, "geometry": { "type": "Point", "coordinates": [ 150.1635527, -5.5572084 ] } },
{ "type": "Feature", "properties": { "name": null, "name:en": null, "amenity": "clinic", "building": null, "healthcare": "clinic", "healthcare:speciality": null, "operator:type": null, "capacity:persons": null, "addr:full": null, "addr:city": "Umbukul", "source": null, "name:ho": null, "name:tpi": null, "osm_id": 4425007865, "osm_type": "nodes" }, "geometry": { "type": "Point", "coordinates": [ 149.9904425, -2.5075632 ] } },
{ "type": "Feature", "properties": { "name": null, "name:en": null, "amenity": "pharmacy", "building": null, "healthcare": "pharmacy", "healthcare:speciality": null, "operator:type": null, "capacity:persons": null, "addr:full": null, "addr:city": null, "source": null, "name:ho": null, "name:tpi": null, "osm_id": 2540248393, "osm_type": "nodes" }, "geometry": { "type": "Point", "coordinates": [ 150.4472189, -10.3065555 ] } },
{ "type": "Feature", "properties": { "name": "Neregaima Health Centre", "name:en": null, "amenity": "clinic", "building": null, "healthcare": "clinic", "healthcare:speciality": null, "operator:type": null, "capacity:persons": null, "addr:full": null, "addr:city": null, "source": null, "name:ho": null, "name:tpi": null, "osm_id": 11498135894, "osm_type": "nodes" }, "geometry": { "type": "Point", "coordinates": [ 144.8820436, -6.0597902 ] } },
{ "type": "Feature", "properties": { "name": "Mai Health Centre", "name:en": null, "amenity": "clinic", "building": null, "healthcare": "clinic", "healthcare:speciality": null, "operator:type": null, "capacity:persons": null, "addr:full": null, "addr:city": null, "source": null, "name:ho": null, "name:tpi": null, "osm_id": 11498185211, "osm_type": "nodes" }, "geometry": { "type": "Point", "coordinates": [ 145.0287639, -6.005182 ] } },
{ "type": "Feature", "properties": { "name": "City Pharmacy", "name:en": null, "amenity": "pharmacy", "building": null, "healthcare": "pharmacy", "healthcare:speciality": null, "operator:type": null, "capacity:persons": null, "addr:full": null, "addr:city": null, "source": null, "name:ho": null, "name:tpi": null, "osm_id": 11482786372, "osm_type": "nodes" }, "geometry": { "type": "Point", "coordinates": [ 145.395700799999986, -6.073206 ] } },
{ "type": "Feature", "properties": { "name": "Goroka Pharmacy", "name:en": null, "amenity": "pharmacy", "building": null, "healthcare": "pharmacy", "healthcare:speciality": null, "operator:type": null, "capacity:persons": null, "addr:full": null, "addr:city": null, "source": null, "name:ho": null, "name:tpi": null, "osm_id": 11482904422, "osm_type": "nodes" }, "geometry": { "type": "Point", "coordinates": [ 145.3942587, -6.0750381 ] } },
{ "type": "Feature", "properties": { "name": "PIH Eyecare", "name:en": null, "amenity": null, "building": null, "healthcare": "optometrist", "healthcare:speciality": null, "operator:type": null, "capacity:persons": null, "addr:full": null, "addr:city": null, "source": null, "name:ho": null, "name:tpi": null, "osm_id": 7407667727, "osm_type": "nodes" }, "geometry": { "type": "Point", "coordinates": [ 146.9885126, -6.7361188 ] } },
{ "type": "Feature", "properties": { "name": "Bomana TB Treatment Point", "name:en": null, "amenity": "clinic", "building": null, "healthcare": "clinic", "healthcare:speciality": null, "operator:type": null, "capacity:persons": null, "addr:full": null, "addr:city": null, "source": null, "name:ho": null, "name:tpi": null, "osm_id": 4055913614, "osm_type": "nodes" }, "geometry": { "type": "Point", "coordinates": [ 143.211913, -9.0776028 ] } },
{ "type": "Feature", "properties": { "name": "Kiunga Pharmacy", "name:en": null, "amenity": "pharmacy", "building": null, "healthcare": "pharmacy", "healthcare:speciality": null, "operator:type": null, "capacity:persons": null, "addr:full": null, "addr:city": null, "source": null, "name:ho": null, "name:tpi": null, "osm_id": 12705118918, "osm_type": "nodes" }, "geometry": { "type": "Point", "coordinates": [ 141.298937, -6.1215578 ] } },
{ "type": "Feature", "properties": { "name": "Kindeng Health Centre", "name:en": null, "amenity": "clinic", "building": null, "healthcare": "clinic", "healthcare:speciality": null, "operator:type": null, "capacity:persons": null, "addr:full": null, "addr:city": null, "source": null, "name:ho": null, "name:tpi": null, "osm_id": 12103895887, "osm_type": "nodes" }, "geometry": { "type": "Point", "coordinates": [ 144.4287323, -5.7912251 ] } },
{ "type": "Feature", "properties": { "name": "GM Flores Hospital", "name:en": null, "amenity": "clinic", "building": null, "healthcare": "clinic", "healthcare:speciality": null, "operator:type": null, "capacity:persons": null, "addr:full": null, "addr:city": null, "source": null, "name:ho": null, "name:tpi": null, "osm_id": 7406359171, "osm_type": "nodes" }, "geometry": { "type": "Point", "coordinates": [ 147.0027895, -6.7297664 ] } },
{ "type": "Feature", "properties": { "name": "PIH - Mount Hagen", "name:en": null, "amenity": "clinic", "building": null, "healthcare": "clinic", "healthcare:speciality": "general;blood_check;gynaecology;dentist;paediatrics", "operator:type": "private", "capacity:persons": null, "addr:full": null, "addr:city": null, "source": null, "name:ho": null, "name:tpi": null, "osm_id": 10917202592, "osm_type": "nodes" }, "geometry": { "type": "Point", "coordinates": [ 144.2303054, -5.8645804 ] } },
{ "type": "Feature", "properties": { "name": "Rabaul Town Clinic", "name:en": null, "amenity": "clinic", "building": null, "healthcare": "clinic", "healthcare:speciality": null, "operator:type": null, "capacity:persons": null, "addr:full": null, "addr:city": null, "source": "approximation", "name:ho": null, "name:tpi": null, "osm_id": 693078094, "osm_type": "nodes" }, "geometry": { "type": "Point", "coordinates": [ 152.178131400000012, -4.198352 ] } },
{ "type": "Feature", "properties": { "name": "Mandress Aid Post", "name:en": null, "amenity": "clinic", "building": null, "healthcare": "clinic", "healthcare:speciality": "general", "operator:type": "community", "capacity:persons": null, "addr:full": null, "addr:city": "Kokopo", "source": null, "name:ho": null, "name:tpi": null, "osm_id": 10687208359, "osm_type": "nodes" }, "geometry": { "type": "Point", "coordinates": [ 151.9140956, -4.3391316 ] } },
{ "type": "Feature", "properties": { "name": "Highlands Pharmacy", "name:en": null, "amenity": "pharmacy", "building": null, "healthcare": "pharmacy", "healthcare:speciality": null, "operator:type": null, "capacity:persons": null, "addr:full": null, "addr:city": null, "source": null, "name:ho": null, "name:tpi": null, "osm_id": 12802018430, "osm_type": "nodes" }, "geometry": { "type": "Point", "coordinates": [ 145.3942878, -6.0742812 ] } },
{ "type": "Feature", "properties": { "name": "Wewak Chemcare Pharmacy", "name:en": null, "amenity": "pharmacy", "building": null, "healthcare": "pharmacy", "healthcare:speciality": null, "operator:type": null, "capacity:persons": null, "addr:full": null, "addr:city": null, "source": null, "name:ho": null, "name:tpi": null, "osm_id": 12460675759, "osm_type": "nodes" }, "geometry": { "type": "Point", "coordinates": [ 143.6255112, -3.552999 ] } },
{ "type": "Feature", "properties": { "name": "NHC Pharmacy", "name:en": null, "amenity": "pharmacy", "building": null, "healthcare": "pharmacy", "healthcare:speciality": null, "operator:type": null, "capacity:persons": null, "addr:full": null, "addr:city": null, "source": null, "name:ho": null, "name:tpi": null, "osm_id": 12822691802, "osm_type": "nodes" }, "geometry": { "type": "Point", "coordinates": [ 147.1885847, -9.4467341 ] } },
{ "type": "Feature", "properties": { "name": "Eric's Medical Services", "name:en": null, "amenity": "doctors", "building": null, "healthcare": "doctor", "healthcare:speciality": null, "operator:type": null, "capacity:persons": null, "addr:full": null, "addr:city": null, "source": null, "name:ho": null, "name:tpi": null, "osm_id": 12823500717, "osm_type": "nodes" }, "geometry": { "type": "Point", "coordinates": [ 147.1849043, -9.4462892 ] } },
{ "type": "Feature", "properties": { "name": "Gordons Pharmacy", "name:en": null, "amenity": "pharmacy", "building": null, "healthcare": "pharmacy", "healthcare:speciality": null, "operator:type": null, "capacity:persons": null, "addr:full": null, "addr:city": null, "source": null, "name:ho": null, "name:tpi": null, "osm_id": 12828944892, "osm_type": "nodes" }, "geometry": { "type": "Point", "coordinates": [ 147.205758300000014, -9.4358929 ] } },
{ "type": "Feature", "properties": { "name": "Pomberal Health Centre", "name:en": null, "amenity": null, "building": null, "healthcare": "clinic", "healthcare:speciality": "general", "operator:type": null, "capacity:persons": null, "addr:full": null, "addr:city": "Nipa", "source": null, "name:ho": null, "name:tpi": null, "osm_id": 8740807706, "osm_type": "nodes" }, "geometry": { "type": "Point", "coordinates": [ 143.4539751, -6.217474 ] } },
{ "type": "Feature", "properties": { "name": "ISOS Airways Clinic", "name:en": null, "amenity": "clinic", "building": null, "healthcare": "clinic", "healthcare:speciality": null, "operator:type": null, "capacity:persons": null, "addr:full": null, "addr:city": null, "source": null, "name:ho": null, "name:tpi": null, "osm_id": 3975063786, "osm_type": "nodes" }, "geometry": { "type": "Point", "coordinates": [ 147.216905700000012, -9.4511377 ] } },
{ "type": "Feature", "properties": { "name": "Hiri Aidpost", "name:en": null, "amenity": "hospital", "building": null, "healthcare": "hospital", "healthcare:speciality": null, "operator:type": null, "capacity:persons": null, "addr:full": null, "addr:city": null, "source": null, "name:ho": null, "name:tpi": null, "osm_id": 8422193531, "osm_type": "nodes" }, "geometry": { "type": "Point", "coordinates": [ 143.3837586, -6.0224389 ] } }
]
}
